{
  "norad_id": 58603,
  "name": "STARLINK-31080",
  "history": [
    {
      "epoch": "2026-03-28T15:24:40.560768",
      "apogee_km": 485.9079861453347,
      "perigee_km": 485.1914172536772,
      "latitude_deg": -13.883425035278492,
      "longitude_deg": 101.94506752002053,
      "semi_major_axis_km": 6863.686701699506,
      "eccentricity": 5.22e-05,
      "inclination_deg": 43.0048,
      "raan_deg": 61.4418,
      "arg_perigee_deg": 270.6274,
      "mean_anomaly_deg": 89.4517,
      "mean_motion_rev_day": 15.26745275
    }
  ]
}