{"fetched_at":"2026-03-29T16:36:15Z","count":15609,"tles":[{"name":"STARLINK-31080","line1":"1 58603U 23200Q   26087.64213612 -.00000085  00000+0  65219-5 0  9998","line2":"2 58603  43.0048  61.4418 0000522 270.6274  89.4517 15.26745275126326","category":"Starlink"}]}